CTC2_L_00612007-03
1 64861U 24830OT  26037.47799769  .00000000  00000+0  00000-0 0  9997
2 64861  65.0000 180.0000 0000000   0.0000 144.0000  5.31014061    18
CTC2_L_00612007-04
1 64862U 26790KX  26037.47799769  .00000000  00000+0  00000-0 0  9995
2 64862  65.0000 180.0000 0000000   0.0000 180.0000  5.31014061    19
CTC2_L_00612007-05
1 64863U 26354YQ  26037.47799769  .00000000  00000+0  00000-0 0  9992
2 64863  65.0000 180.0000 0000000   0.0000 216.0000  5.31014061    10
CTC2_L_00612007-06
1 64864U 25286EG  26037.47799769  .00000000  00000+0  00000-0 0  9996
2 64864  65.0000 180.0000 0000000   0.0000 252.0000  5.31014061    11
CTC2_L_00612007-07
1 64865U 22205XZ  26037.47799769  .00000000  00000+0  00000-0 0  9995
2 64865  65.0000 180.0000 0000000   0.0000 288.0000  5.31014061    11
CTC2_L_00612007-08
1 64866U 26903US  26037.47799769  .00000000  00000+0  00000-0 0  9995
2 64866  65.0000 180.0000 0000000   0.0000 324.0000  5.31014061    13
CTC2_L_00612007-09
1 64867U 26416OQ  26037.47799769  .00000000  00000+0  00000-0 0  9995
2 64867  65.0000 180.0000 0000000   0.0000   0.0000  5.31014061    15
CTC2_L_00612007-10
1 64868U 24244GB  26037.47799769  .00000000  00000+0  00000-0 0  9993
2 64868  65.0000 180.0000 0000000   0.0000  36.0000  5.31014061    15
CTC2_L_00612008-01
1 64869U 23142UQ  26037.47799769  .00000000  00000+0  00000-0 0  9990
2 64869  65.0000 210.0000 0000000   0.0000  84.0000  5.31014061    13
CTC2_L_00612008-02
1 64870U 22350IB  26037.47799769  .00000000  00000+0  00000-0 0  9992
2 64870  65.0000 210.0000 0000000   0.0000 120.0000  5.31014061    16
CTC2_L_00612008-03
1 64871U 26518WB  26037.47799769  .00000000  00000+0  00000-0 0  9993
2 64871  65.0000 210.0000 0000000   0.0000 156.0000  5.31014061    16
CTC2_L_00612008-04
1 64872U 25840EW  26037.47799769  .00000000  00000+0  00000-0 0  9991
2 64872  65.0000 210.0000 0000000   0.0000 192.0000  5.31014061    17
CTC2_L_00612008-05
1 64873U 25076ZW  26037.47799769  .00000000  00000+0  00000-0 0  9993
2 64873  65.0000 210.0000 0000000   0.0000 228.0000  5.31014061    18
CTC2_L_00612008-06
1 64874U 24053DT  26037.47799769  .00000000  00000+0  00000-0 0  9998
2 64874  65.0000 210.0000 0000000   0.0000 264.0000  5.31014061    19
CTC2_L_00612008-07
1 64875U 22998IT  26037.47799769  .00000000  00000+0  00000-0 0  9995
2 64875  65.0000 210.0000 0000000   0.0000 300.0000  5.31014061    11
CTC2_L_00612008-08
1 64876U 25736VS  26037.47799769  .00000000  00000+0  00000-0 0  9999
2 64876  65.0000 210.0000 0000000   0.0000 336.0000  5.31014061    11
CTC2_L_00612008-09
1 64877U 22547KW  26037.47799769  .00000000  00000+0  00000-0 0  9997
2 64877  65.0000 210.0000 0000000   0.0000  12.0000  5.31014061    13
CTC2_L_00612008-10
1 64878U 24276KL  26037.47799769  .00000000  00000+0  00000-0 0  9999
2 64878  65.0000 210.0000 0000000   0.0000  48.0000  5.31014061    13
CTC2_L_00612009-01
1 64879U 24444YL  26037.47799769  .00000000  00000+0  00000-0 0  9997
2 64879  65.0000 240.0000 0000000   0.0000  96.0000  5.31014061    10
CTC2_L_00612009-02
1 64880U 24269MR  26037.47799769  .00000000  00000+0  00000-0 0  9994
2 64880  65.0000 240.0000 0000000   0.0000 132.0000  5.31014061    13
CTC2_L_00612009-03
1 64881U 24098MQ  26037.47799769  .00000000  00000+0  00000-0 0  9995
2 64881  65.0000 240.0000 0000000   0.0000 168.0000  5.31014061    13
CTC2_L_00612009-04
1 64882U 24242EI  26037.47799769  .00000000  00000+0  00000-0 0  9997
2 64882  65.0000 240.0000 0000000   0.0000 204.0000  5.31014061    15
CTC2_L_00612009-05
1 64883U 25011OB  26037.47799769  .00000000  00000+0  00000-0 0  9993
2 64883  65.0000 240.0000 0000000   0.0000 240.0000  5.31014061    16
CTC2_L_00612009-06
1 64884U 22810KO  26037.47799769  .00000000  00000+0  00000-0 0  9998
2 64884  65.0000 240.0000 0000000   0.0000 276.0000  5.31014061    16
CTC2_L_00612009-07
1 64885U 26460BA  26037.47799769  .00000000  00000+0  00000-0 0  9994
2 64885  65.0000 240.0000 0000000   0.0000 312.0000  5.31014061    18
CTC2_L_00612009-08
1 64886U 23426TM  26037.47799769  .00000000  00000+0  00000-0 0  9994
2 64886  65.0000 240.0000 0000000   0.0000 348.0000  5.31014061    18
CTC2_L_00612009-09
1 64887U 25940FO  26037.47799769  .00000000  00000+0  00000-0 0  9998
2 64887  65.0000 240.0000 0000000   0.0000  24.0000  5.31014061    10
CTC2_L_00612009-10
1 64888U 23138UZ  26037.47799769  .00000000  00000+0  00000-0 0  9996
2 64888  65.0000 240.0000 0000000   0.0000  60.0000  5.31014061    11
CTC2_L_00612010-01
1 64889U 25984EY  26037.47799769  .00000000  00000+0  00000-0 0  9998
2 64889  65.0000 270.0000 0000000   0.0000 108.0000  5.31014061    18
CTC2_L_00612010-02
1 64890U 23323JB  26037.47799769  .00000000  00000+0  00000-0 0  9995
2 64890  65.0000 270.0000 0000000   0.0000 144.0000  5.31014061    10
CTC2_L_00612010-03
1 64891U 24259RD  26037.47799769  .00000000  00000+0  00000-0 0  9995
2 64891  65.0000 270.0000 0000000   0.0000 180.0000  5.31014061    11
CTC2_L_00612010-04
1 64892U 23046LC  26037.47799769  .00000000  00000+0  00000-0 0  9999
2 64892  65.0000 270.0000 0000000   0.0000 216.0000  5.31014061    12
CTC2_L_00612010-05
1 64893U 26812IS  26037.47799769  .00000000  00000+0  00000-0 0  9994
2 64893  65.0000 270.0000 0000000   0.0000 252.0000  5.31014061    13
CTC2_L_00612010-06
1 64894U 25378EK  26037.47799769  .00000000  00000+0  00000-0 0  9991
2 64894  65.0000 270.0000 0000000   0.0000 288.0000  5.31014061    13
CTC2_L_00612010-07
1 64895U 22465DU  26037.47799769  .00000000  00000+0  00000-0 0  9996
2 64895  65.0000 270.0000 0000000   0.0000 324.0000  5.31014061    15
CTC2_L_00612010-08
1 64896U 22529GE  26037.47799769  .00000000  00000+0  00000-0 0  9998
2 64896  65.0000 270.0000 0000000   0.0000   0.0000  5.31014061    17
CTC2_L_00612010-09
1 64897U 22053JJ  26037.47799769  .00000000  00000+0  00000-0 0  9991
2 64897  65.0000 270.0000 0000000   0.0000  36.0000  5.31014061    17
CTC2_L_00612010-10
1 64898U 24625ZF  26037.47799769  .00000000  00000+0  00000-0 0  9999
2 64898  65.0000 270.0000 0000000   0.0000  72.0000  5.31014061    18
CTC2_L_00612011-01
1 64899U 25745CE  26037.47799769  .00000000  00000+0  00000-0 0  9994
2 64899  65.0000 300.0000 0000000   0.0000 120.0000  5.31014061    17
CTC2_L_00612011-02
1 64900U 22312ER  26037.47799769  .00000000  00000+0  00000-0 0  9994
2 64900  65.0000 300.0000 0000000   0.0000 156.0000  5.31014061    19
CTC2_L_00612011-03
1 64901U 25798PP  26037.47799769  .00000000  00000+0  00000-0 0  9996
2 64901  65.0000 300.0000 0000000   0.0000 192.0000  5.31014061    10
CTC2_L_00612011-04
1 64902U 24278QO  26037.47799769  .00000000  00000+0  00000-0 0  9999
2 64902  65.0000 300.0000 0000000   0.0000 228.0000  5.31014061    11
CTC2_L_00612011-05
1 64903U 24901LC  26037.47799769  .00000000  00000+0  00000-0 0  9993
2 64903  65.0000 300.0000 0000000   0.0000 264.0000  5.31014061    12
CTC2_L_00612011-06
1 64904U 23755MY  26037.47799769  .00000000  00000+0  00000-0 0  9990
2 64904  65.0000 300.0000 0000000   0.0000 300.0000  5.31014061    14
CTC2_L_00612011-07
1 64905U 26992XK  26037.47799769  .00000000  00000+0  00000-0 0  9997
2 64905  65.0000 300.0000 0000000   0.0000 336.0000  5.31014061    14
CTC2_L_00612011-08
1 64906U 22222DQ  26037.47799769  .00000000  00000+0  00000-0 0  9990
2 64906  65.0000 300.0000 0000000   0.0000  12.0000  5.31014061    16
CTC2_L_00612011-09
1 64907U 25365RQ  26037.47799769  .00000000  00000+0  00000-0 0  9992
2 64907  65.0000 300.0000 0000000   0.0000  48.0000  5.31014061    16
CTC2_L_00612011-10
1 64908U 24825SG  26037.47799769  .00000000  00000+0  00000-0 0  9993
2 64908  65.0000 300.0000 0000000   0.0000  84.0000  5.31014061    17
CTC2_L_00612012-01
1 64909U 23568JL  26037.47799769  .00000000  00000+0  00000-0 0  9997
2 64909  65.0000 330.0000 0000000   0.0000 132.0000  5.31014061    15
CTC2_L_00612012-02
1 64910U 24822KB  26037.47799769  .00000000  00000+0  00000-0 0  9993
2 64910  65.0000 330.0000 0000000   0.0000 168.0000  5.31014061    16
CTC2_L_00612012-03
1 64911U 23084VN  26037.47799769  .00000000  00000+0  00000-0 0  9993
2 64911  65.0000 330.0000 0000000   0.0000 204.0000  5.31014061    18
CTC2_L_00612012-04
1 64912U 25992YT  26037.47799769  .00000000  00000+0  00000-0 0  9994
2 64912  65.0000 330.0000 0000000   0.0000 240.0000  5.31014061    19
CTC2_L_00612012-05
1 64913U 26263ZR  26037.47799769  .00000000  00000+0  00000-0 0  9997
2 64913  65.0000 330.0000 0000000   0.0000 276.0000  5.31014061    19
CTC2_L_00612012-06
1 64914U 22892EC  26037.47799769  .00000000  00000+0  00000-0 0  9992
2 64914  65.0000 330.0000 0000000   0.0000 312.0000  5.31014061    11
CTC2_L_00612012-07
1 64915U 25133HI  26037.47799769  .00000000  00000+0  00000-0 0  9994
2 64915  65.0000 330.0000 0000000   0.0000 348.0000  5.31014061    11
CTC2_L_00612012-08
1 64916U 22039VY  26037.47799769  .00000000  00000+0  00000-0 0  9997
2 64916  65.0000 330.0000 0000000   0.0000  24.0000  5.31014061    13
CTC2_L_00612012-09
1 64917U 24316EL  26037.47799769  .00000000  00000+0  00000-0 0  9998
2 64917  65.0000 330.0000 0000000   0.0000  60.0000  5.31014061    14
CTC2_L_00612012-10
1 64918U 23280BC  26037.47799769  .00000000  00000+0  00000-0 0  9998
2 64918  65.0000 330.0000 0000000   0.0000  96.0000  5.31014061    14
